OBJECT_NAME,OBJECT_ID,EPOCH,MEAN_MOTION,ECCENTRICITY,INCLINATION,RA_OF_ASC_NODE,ARG_OF_PERICENTER,MEAN_ANOMALY,EPHEMERIS_TYPE,CLASSIFICATION_TYPE,NORAD_CAT_ID,ELEMENT_SET_NO,REV_AT_EPOCH,BSTAR,MEAN_MOTION_DOT,MEAN_MOTION_DDOT
FENGYUN 3D,2017-072A,2026-07-23T13:59:08.464704,14.19744457,.00010592,99.0154,179.6670,357.6992,2.4178,0,U,43010,999,45015,-.90736161E-4,-.238E-5,0
NOAA 20 (JPSS-1),2017-073A,2026-07-23T14:00:30.515328,14.19517659,.00016604,98.7772,143.7241,115.0026,245.1323,0,U,43013,999,44963,.40077234E-4,.4E-6,0
GOES 17,2018-022A,2026-07-23T14:16:11.578080,1.00271882,.00007161,1.0278,85.1400,57.4315,283.3017,0,U,43226,999,3078,0,-.179E-5,0
SENTINEL-3B,2018-039A,2026-07-23T10:43:27.107328,14.26738084,.00013167,98.6229,271.4552,117.9651,242.1662,0,U,43437,999,42929,.48154908E-4,.73E-6,0
FENGYUN 2H,2018-050A,2026-07-23T15:04:18.616800,1.00267354,.00020504,3.1228,78.6461,123.5879,44.2003,0,U,43491,999,2980,0,-.123E-5,0
METOP-C,2018-087A,2026-07-23T14:22:40.630368,14.21504488,.00020719,98.6623,263.5331,82.8940,277.2473,0,U,43689,999,40000,.4895437E-4,.64E-6,0
GEO-KOMPSAT-2A,2018-100A,2026-07-23T13:00:38.746368,1.00270934,.00025224,0.0156,101.9759,357.0584,165.6569,0,U,43823,999,2799,0,-.339E-5,0
METEOR-M2 2,2019-038A,2026-07-23T13:29:01.292064,14.24374507,.00002349,98.9173,192.3880,346.4142,13.7030,0,U,44387,999,36647,.49561828E-4,.69E-6,0
ARKTIKA-M 1,2021-016A,2026-07-17T21:31:16.955328,2.00610215,.72985164,63.2571,53.1467,270.0868,14.5016,0,U,47719,999,3940,0,-.295E-5,0
FENGYUN 3E,2021-062A,2026-07-23T13:30:08.163072,14.19907486,.00018355,98.7512,207.5666,24.7163,335.4101,0,U,49008,999,26174,.14052576E-3,.254E-5,0
GOES 18,2022-021A,2026-07-23T12:22:38.635680,1.00271259,.00005383,0.0165,75.4696,70.2238,204.2110,0,U,51850,999,695,0,0,0
NOAA 21 (JPSS-2),2022-150A,2026-07-23T13:05:19.440096,14.19542043,.00029202,98.7059,142.7240,89.7127,270.4384,0,U,54234,999,19170,.27205912E-4,.14E-6,0
METEOSAT-12 (MTG-I1),2022-170C,2026-07-23T07:50:58.136064,1.00270141,.00041707,0.7333,21.0643,81.1493,316.1858,0,U,54743,999,1334,0,-.4E-7,0
TIANMU-1 03,2023-039A,2026-07-23T15:25:16.003776,15.48234354,.00018632,97.5250,20.0694,352.7701,7.3522,0,U,55973,999,18647,.31227763E-3,.16369E-3,0
TIANMU-1 04,2023-039B,2026-07-23T14:49:15.621024,15.48866980,.00021992,97.5188,19.2007,338.2582,21.8575,0,U,55974,999,18648,.31210258E-3,.16727E-3,0
TIANMU-1 05,2023-039C,2026-07-23T15:00:08.675424,15.48156432,.00022476,97.5230,19.6530,25.0386,335.0973,0,U,55975,999,18645,.30724497E-3,.1606E-3,0
TIANMU-1 06,2023-039D,2026-07-23T14:57:32.484960,15.48760238,.00022506,97.5239,20.3241,12.9687,347.1621,0,U,55976,999,18648,.30066739E-3,.16049E-3,0
FENGYUN 3G,2023-055A,2026-07-23T10:49:10.135200,15.54087002,.00067886,49.9911,158.9535,95.2664,264.9078,0,U,56232,999,18564,.38026964E-3,.24794E-3,0
METEOR-M2 3,2023-091A,2026-07-23T15:14:08.676960,14.24049423,.00050331,98.6063,258.8632,71.4672,288.7054,0,U,57166,999,15970,.12577598E-4,-.14E-6,0
TIANMU-1 07,2023-101A,2026-07-23T14:15:31.624992,15.30189192,.00030865,97.2577,254.4308,47.0586,313.0913,0,U,57399,999,16721,.23015294E-3,.6649E-4,0
TIANMU-1 08,2023-101B,2026-07-23T13:27:21.422304,15.30191743,.00037651,97.2566,254.1636,22.8271,337.3137,0,U,57400,999,16720,.23265457E-3,.6723E-4,0
TIANMU-1 09,2023-101C,2026-07-23T14:36:22.152672,15.30236333,.00036868,97.2524,253.6076,45.1813,314.9727,0,U,57401,999,16721,.23815108E-3,.6893E-4,0
TIANMU-1 10,2023-101D,2026-07-23T13:50:42.423360,15.30209406,.0004856,97.2604,254.6644,30.5850,329.5673,0,U,57402,999,16720,.23232813E-3,.6718E-4,0
FENGYUN 3F,2023-111A,2026-07-23T14:47:10.510368,14.19944462,.0001112,98.6820,273.9428,75.0404,285.0895,0,U,57490,999,15403,.30873216E-4,.22E-6,0
ARKTIKA-M 2,2023-198A,2026-07-21T03:45:39.718944,2.00607150,.69126494,63.2169,150.5623,267.3229,18.7284,0,U,58584,999,1900,0,.142E-5,0
TIANMU-1 11,2023-205A,2026-07-23T14:45:50.891904,15.27327314,.00073004,97.3449,225.6072,225.0517,135.0131,0,U,58645,999,14308,.22381834E-3,.5921E-4,0
TIANMU-1 12,2023-205B,2026-07-22T16:07:03.245376,15.27003015,.00064874,97.3438,224.4213,209.2071,150.8807,0,U,58646,999,14292,.15785076E-3,.4112E-4,0
TIANMU-1 13,2023-205C,2026-07-23T13:21:17.717184,15.27153353,.00067827,97.3466,225.5759,180.6517,179.4715,0,U,58647,999,14305,.22972335E-3,.6046E-4,0
TIANMU-1 14,2023-205D,2026-07-23T14:32:49.782336,15.27197473,.00073886,97.3402,224.7782,187.3623,172.7509,0,U,58648,999,14306,.23013343E-3,.6066E-4,0
TIANMU-1 19,2023-208A,2026-07-23T14:33:36.225792,15.32075742,.00054169,97.4523,321.1111,168.8385,191.2977,0,U,58660,999,14290,.29823355E-3,.9162E-4,0
