FENGYUN 3D              
1 43010U 17072A   26204.58273686 -.00000238  00000+0 -90736-4 0  9997
2 43010  99.0154 179.6670 0001059 357.6992   2.4178 14.19744457450153
NOAA 20 (JPSS-1)        
1 43013U 17073A   26204.58368652  .00000040  00000+0  40077-4 0  9991
2 43013  98.7772 143.7241 0001660 115.0026 245.1323 14.19517659449637
GOES 17                 
1 43226U 18022A   26204.59457845 -.00000179  00000+0  00000+0 0  9997
2 43226   1.0278  85.1400 0000716  57.4315 283.3017  1.00271882 30785
SENTINEL-3B             
1 43437U 18039A   26204.44684152  .00000073  00000+0  48155-4 0  9996
2 43437  98.6229 271.4552 0001316 117.9651 242.1662 14.26738084429298
FENGYUN 2H              
1 43491U 18050A   26204.62799325 -.00000123  00000+0  00000+0 0  9997
2 43491   3.1228  78.6461 0002050 123.5879  44.2003  1.00267354 29803
METOP-C                 
1 43689U 18087A   26204.59908137  .00000064  00000+0  48954-4 0  9993
2 43689  98.6623 263.5331 0002071  82.8940 277.2473 14.21504488400003
GEO-KOMPSAT-2A          
1 43823U 18100A   26204.54211512 -.00000339  00000+0  00000+0 0  9999
2 43823   0.0156 101.9759 0002522 357.0584 165.6569  1.00270934 27990
METEOR-M2 2             
1 44387U 19038A   26204.56182051  .00000069  00000+0  49562-4 0  9993
2 44387  98.9173 192.3880 0000234 346.4142  13.7030 14.24374507366476
ARKTIKA-M 1             
1 47719U 21016A   26198.89672402 -.00000295  00000+0  00000+0 0  9997
2 47719  63.2571  53.1467 7298516 270.0868  14.5016  2.00610215 39409
FENGYUN 3E              
1 49008U 21062A   26204.56259448  .00000254  00000+0  14053-3 0  9995
2 49008  98.7512 207.5666 0001835  24.7163 335.4101 14.19907486261743
GOES 18                 
1 51850U 22021A   26204.51572495  .00000000  00000+0  00000+0 0  9996
2 51850   0.0165  75.4696 0000538  70.2238 204.2110  1.00271259  6955
NOAA 21 (JPSS-2)        
1 54234U 22150A   26204.54536389  .00000014  00000+0  27206-4 0  9990
2 54234  98.7059 142.7240 0002920  89.7127 270.4384 14.19542043191704
METEOSAT-12 (MTG-I1)    
1 54743U 22170C   26204.32706176 -.00000004  00000+0  00000+0 0  9994
2 54743   0.7333  21.0643 0004170  81.1493 316.1858  1.00270141 13344
TIANMU-1 03             
1 55973U 23039A   26204.64254634  .00016369  00000+0  31228-3 0  9997
2 55973  97.5250  20.0694 0001863 352.7701   7.3522 15.48234354186477
TIANMU-1 04             
1 55974U 23039B   26204.61754191  .00016727  00000+0  31210-3 0  9997
2 55974  97.5188  19.2007 0002199 338.2582  21.8575 15.48866980186481
TIANMU-1 05             
1 55975U 23039C   26204.62510041  .00016060  00000+0  30724-3 0  9992
2 55975  97.5230  19.6530 0002247  25.0386 335.0973 15.48156432186455
TIANMU-1 06             
1 55976U 23039D   26204.62329265  .00016049  00000+0  30067-3 0  9996
2 55976  97.5239  20.3241 0002250  12.9687 347.1621 15.48760238186488
FENGYUN 3G              
1 56232U 23055A   26204.45081175  .00024794  00000+0  38027-3 0  9996
2 56232  49.9911 158.9535 0006788  95.2664 264.9078 15.54087002185642
METEOR-M2 3             
1 57166U 23091A   26204.63482265 -.00000014  00000+0  12578-4 0  9992
2 57166  98.6063 258.8632 0005033  71.4672 288.7054 14.24049423159700
TIANMU-1 07             
1 57399U 23101A   26204.59411603  .00006649  00000+0  23015-3 0  9991
2 57399  97.2577 254.4308 0003086  47.0586 313.0913 15.30189192167211
TIANMU-1 08             
1 57400U 23101B   26204.56066461  .00006723  00000+0  23265-3 0  9999
2 57400  97.2566 254.1636 0003765  22.8271 337.3137 15.30191743167200
TIANMU-1 09             
1 57401U 23101C   26204.60858973  .00006893  00000+0  23815-3 0  9991
2 57401  97.2524 253.6076 0003686  45.1813 314.9727 15.30236333167211
TIANMU-1 10             
1 57402U 23101D   26204.57687990  .00006718  00000+0  23233-3 0  9997
2 57402  97.2604 254.6644 0004856  30.5850 329.5673 15.30209406167204
FENGYUN 3F              
1 57490U 23111A   26204.61609387  .00000022  00000+0  30873-4 0  9995
2 57490  98.6820 273.9428 0001112  75.0404 285.0895 14.19944462154034
ARKTIKA-M 2             
1 58584U 23198A   26202.15670971  .00000142  00000+0  00000+0 0  9996
2 58584  63.2169 150.5623 6912649 267.3229  18.7284  2.00607150 19000
TIANMU-1 11             
1 58645U 23205A   26204.61517236  .00005921  00000+0  22382-3 0  9991
2 58645  97.3449 225.6072 0007300 225.0517 135.0131 15.27327314143087
TIANMU-1 12             
1 58646U 23205B   26203.67156534  .00004112  00000+0  15785-3 0  9997
2 58646  97.3438 224.4213 0006487 209.2071 150.8807 15.27003015142920
TIANMU-1 13             
1 58647U 23205C   26204.55645506  .00006046  00000+0  22972-3 0  9992
2 58647  97.3466 225.5759 0006782 180.6517 179.4715 15.27153353143055
TIANMU-1 14             
1 58648U 23205D   26204.60613174  .00006066  00000+0  23013-3 0  9994
2 58648  97.3402 224.7782 0007388 187.3623 172.7509 15.27197473143067
TIANMU-1 19             
1 58660U 23208A   26204.60666928  .00009162  00000+0  29823-3 0  9991
2 58660  97.4523 321.1111 0005416 168.8385 191.2977 15.32075742142900
